{
    "links": {
        "self": "http://www.neowsapp.com/rest/v1/neo/3739060?api_key=iIulBulltgU6a56xZRHN4H3l9WmuAYTsLGpBGhQ2"
    },
    "id": "3739060",
    "neo_reference_id": "3739060",
    "name": "(2015 YV9)",
    "designation": "2015 YV9",
    "nasa_jpl_url": "http://ssd.jpl.nasa.gov/sbdb.cgi?sstr=3739060",
    "absolute_magnitude_h": 25.8,
    "estimated_diameter": {
        "kilometers": {
            "estimated_diameter_min": 0.0183888672,
            "estimated_diameter_max": 0.0411187571
        },
        "meters": {
            "estimated_diameter_min": 18.388867207,
            "estimated_diameter_max": 41.1187571041
        },
        "miles": {
            "estimated_diameter_min": 0.0114263088,
            "estimated_diameter_max": 0.0255500032
        },
        "feet": {
            "estimated_diameter_min": 60.3309310875,
            "estimated_diameter_max": 134.9040630575
        }
    },
    "is_potentially_hazardous_asteroid": false,
    "close_approach_data": [
        {
            "close_approach_date": "1903-11-04",
            "close_approach_date_full": "1903-Nov-04 04:53",
            "epoch_date_close_approach": -2087838420000,
            "relative_velocity": {
                "kilometers_per_second": "16.7770903133",
                "kilometers_per_hour": "60397.5251277828",
                "miles_per_hour": "37528.6733217604"
            },
            "miss_distance": {
                "astronomical": "0.3454384083",
                "lunar": "134.3755408287",
                "kilometers": "51676850.097870321",
                "miles": "32110505.6668835898"
            },
            "orbiting_body": "Earth"
        },
        {
            "close_approach_date": "2015-12-26",
            "close_approach_date_full": "2015-Dec-26 15:03",
            "epoch_date_close_approach": 1451142180000,
            "relative_velocity": {
                "kilometers_per_second": "7.4134401753",
                "kilometers_per_hour": "26688.3846309023",
                "miles_per_hour": "16583.1243280181"
            },
            "miss_distance": {
                "astronomical": "0.0241034843",
                "lunar": "9.3762553927",
                "kilometers": "3605829.910858441",
                "miles": "2240558.8105148458"
            },
            "orbiting_body": "Earth"
        }
    ],
    "orbital_data": {
        "orbit_id": "6",
        "orbit_determination_date": "2017-04-06 08:29:35",
        "first_observation_date": "2015-12-29",
        "last_observation_date": "2016-01-03",
        "data_arc_in_days": 5,
        "observations_used": 47,
        "orbit_uncertainty": "7",
        "minimum_orbit_intersection": ".0245162",
        "jupiter_tisserand_invariant": "3.518",
        "epoch_osculation": "2459000.5",
        "eccentricity": ".5281353171308297",
        "semi_major_axis": "2.135519780205246",
        "inclination": "6.158329701024689",
        "ascending_node_longitude": "93.24073703962183",
        "orbital_period": "1139.866065144668",
        "perihelion_distance": "1.007676363847388",
        "perihelion_argument": "357.6435029243714",
        "aphelion_distance": "3.263363196563103",
        "perihelion_time": "2458518.875503524907",
        "mean_anomaly": "152.1098171380583",
        "mean_motion": ".3158265791115642",
        "equinox": "J2000",
        "orbit_class": {
            "orbit_class_type": "APO",
            "orbit_class_description": "Near-Earth asteroid orbits which cross the Earth’s orbit similar to that of 1862 Apollo",
            "orbit_class_range": "a (semi-major axis) > 1.0 AU; q (perihelion) < 1.017 AU"
        }
    },
    "is_sentry_object": false
}